AEHF-5 (USA 292)        
1 44481U 19051A   26113.51782557 -.00000272  00000+0  00000+0 0  9990
2 44481   1.5081 332.1590 0069613   2.7552 156.1335  1.00273463 24711
EUTELSAT 5 WEST B       
1 44624U 19067A   26113.20600363 -.00000054  00000+0  00000+0 0  9994
2 44624   0.0680   1.5905 0003149  31.6648 247.1736  1.00274040 23880
TJS-4                   
1 44637U 19070A   26113.58718272 -.00000182  00000+0  00000+0 0  9994
2 44637   0.0693  74.5381 0002682 352.4925  79.5218  1.00269969 23997
BEIDOU-3 IGSO-3         
1 44709U 19073A   26112.87074928 -.00000187  00000+0  00000+0 0  9996
2 44709  54.8971 281.4927 0041963 188.7679 171.0815  1.00253740 23901
TIBA-1                  
1 44800U 19080A   26113.50638553  .00000143  00000+0  00000+0 0  9998
2 44800   0.0600  21.0332 0001860   4.5331  43.7663  1.00271967 23508
INMARSAT GX5            
1 44801U 19080B   26113.28764779  .00000063  00000+0  00000+0 0  9995
2 44801   0.0454   3.3371 0001470  36.0017 286.5941  1.00274892  6237
JCSAT-18 (KACIFIC 1)    
1 44868U 19091A   26113.51086319 -.00000213  00000+0  00000+0 0  9991
2 44868   0.0277   5.2031 0000279 262.3885 277.8864  1.00271526 23462
ELEKTRO-L 3             
1 44903U 19095A   26113.58570937 -.00000109  00000+0  00000+0 0  9990
2 44903   0.1165  74.6636 0001054 291.9348 131.8285  1.00271092 23165
SHIJIAN-20 (SJ-20)      
1 44910U 19097A   26110.44223602  .00000145  00000+0  00000+0 0  9995
2 44910   4.7711  75.7465 0003496  24.8645 311.6977  1.00093260 23117
TJS-5                   
1 44978U 20002A   26113.13378003 -.00000354  00000+0  00000+0 0  9995
2 44978   0.1502 270.7206 0006111 122.2744 333.8539  1.00273027 23154
GSAT-30                 
1 45026U 20005A   26113.51583223 -.00000177  00000+0  00000+0 0  9990
2 45026   0.0354  79.9680 0002353 344.8231  55.4852  1.00270863 22963
EUTELSAT KONNECT        
1 45027U 20005B   26113.28686779  .00000037  00000+0  00000+0 0  9999
2 45027   0.0705  89.5177 0002130 206.4315  25.8684  1.00270311 23784
JCSAT-17                
1 45245U 20013A   26113.52631894 -.00000332  00000+0  00000+0 0  9994
2 45245   5.3945 356.3439 0003968  21.0471 159.6426  1.00272723 22687
GEO-KOMPSAT-2B          
1 45246U 20013B   26113.52475892 -.00000357  00000+0  00000+0 0  9996
2 45246   0.0154 273.4332 0001035  57.8574 197.4545  1.00270403 22738
BEIDOU-3 G2             
1 45344U 20017A   26113.58648939 -.00000152  00000+0  00000+0 0  9992
2 45344   2.7556  46.4575 0002433 344.7421 111.6088  1.00271528 22718
AEHF-6 (USA 298)        
1 45465U 20022B   26113.52657894 -.00000314  00000+0  00000+0 0  9996
2 45465   2.6702 300.4839 0046491  17.5978 220.8344  1.00272033 22466
BEIDOU-3 G3             
1 45807U 20040A   26113.59255608 -.00000365  00000+0  00000+0 0  9996
2 45807   2.3142  67.2642 0003651 327.4481 140.7900  1.00271895 21523
APSTAR-6D               
1 45863U 20045A   26113.52588560 -.00000330  00000+0  00000+0 0  9994
2 45863   0.0538  79.0874 0002636  10.4438  85.3901  1.00271975 21311
KOREASAT 116            
1 45920U 20048A   26113.52233225 -.00000375  00000+0  00000+0 0  9995
2 45920   0.0200 273.8038 0000669 133.5558 108.4209  1.00267518 21092
EXPRESS 103             
1 45985U 20053A   26113.58978273 -.00000293  00000+0  00000+0 0  9996
2 45985   0.0160 266.2876 0000639   7.0556 247.1231  1.00271467 21100
EXPRESS 80              
1 45986U 20053B   26113.19100558 -.00000148  00000+0  00000+0 0  9996
2 45986   0.0199 266.9088 0002197 250.0777 203.0169  1.00271575 21089
BSAT-4B                 
1 46112U 20056A   26113.52111891 -.00000363  00000+0  00000+0 0  9999
2 46112   0.0928 102.4724 0002812 349.3070  57.2206  1.00271270 20840
MEV-2                   
1 46113U 20056B   26112.72062897 -.00000022  00000+0  00000+0 0  9994
2 46113   0.0094  65.4342 0001034 345.9054  57.8450  1.00269167 80067
GALAXY 30 (G-30)        
1 46114U 20056C   26113.53030713  .00000024  00000+0  00000+0 0  9998
2 46114   0.0182 247.7938 0002188 150.4816 239.1970  1.00271402 20744
GAOFEN-13 01            
1 46610U 20071A   26113.59402941 -.00000375  00000+0  00000+0 0  9998
2 46610   0.3810  84.9014 0042532 122.2883 336.4452  1.00267414 20373
TIANTONG-1 2            
1 46916U 20082A   26113.59541609 -.00000370  00000+0  00000+0 0  9999
2 46916   0.8684 320.3889 0002295  59.8940 170.6260  1.00269109 20103
LUCAS (JDRS-1)          
1 47202U 20089A   26113.51730557 -.00000248  00000+0  00000+0 0  9993
2 47202   0.0127 267.9049 0002335 115.8624 104.8069  1.00270036 19876
SXM-7                   
1 47240U 20096A   26113.26944771 -.00000217  00000+0  00000+0 0  9996
2 47240   0.0360  89.3231 0004453  39.2506  94.5842  1.00269974  6898
CMS-01                  
1 47256U 20099A   26113.51583223 -.00000177  00000+0  00000+0 0  9990
2 47256   0.0574  86.2306 0005155 209.7999 184.2109  1.00270294 19659
TURKSAT 5A              
1 47306U 21001A   26113.18378096  .00000142  00000+0  00000+0 0  9994
2 47306   0.0105 158.1127 0000290  57.9513  92.2470  1.00271342 19413
TIANTONG-1 3            
1 47321U 21003A   26113.58683605 -.00000169  00000+0  00000+0 0  9992
2 47321   1.8046 336.0113 0003070  57.7904 110.6045  1.00269866 19417
TJS-6                   
1 47613U 21010A   26113.60597777  .00000031  00000+0  00000+0 0  9998
2 47613   0.4595  88.4531 0002974 310.5902 209.2693  1.00272907 19264
SBIRS GEO-5 (USA 315)   
1 48618U 21042A   26113.51791223 -.00000285  00000+0  00000+0 0  9993
2 48618   5.1736 328.7192 0001302  55.4035 107.6778  1.00271347 18225
FENGYUN 4B              
1 48808U 21047A   26113.59142940 -.00000343  00000+0  00000+0 0  9998
2 48808   0.0401  36.7143 0005345 333.1939 159.3254  1.00270724 18031
SXM-8                   
1 48838U 21049A   26113.26944771 -.00000217  00000+0  00000+0 0  9999
2 48838   0.0455  61.6834 0004292 336.0911 185.3878  1.00270099 18035
TIANLIAN 1-05           
1 49011U 21063A   26112.92068091  .00000098  00000+0  00000+0 0  9999
2 49011   1.4524  81.0921 0002840 256.1789 221.9665  1.00271539 17520
STAR ONE D2             
1 49055U 21069A   26113.41421696 -.00000277  00000+0  00000+0 0  9992
2 49055   0.0245 125.5141 0001168 297.9855 227.0913  1.00271331 17398
EUTELSAT QUANTUM        
1 49056U 21069B   26113.50881220  .00000113  00000+0  00000+0 0  9994
2 49056   0.0323  35.6902 0002299 350.8033  55.9110  1.00271740 17374
ZHONGXING-2E            
1 49062U 21071A   26113.51877890 -.00000304  00000+0  00000+0 0  9996
2 49062   0.0318 325.4493 0001574 164.7378   6.1964  1.00270641 17496
TJS-7                   
1 49115U 21077A   26113.55095590 -.00000136  00000+0  00000+0 0  9997
2 49115   0.3675  86.5027 0002017 297.4793 286.4483  1.00269707  9008
CHINASAT 9B             
1 49125U 21080A   26113.59073606 -.00000325  00000+0  00000+0 0  9990
2 49125   0.0231 259.8059 0001216 107.3622 158.5174  1.00268541 17105
SHIJIAN-21 (SJ-21)      
1 49330U 21094A   26113.56843411 -.00000359  00000+0  00000+0 0  9996
2 49330   4.9861  61.4827 0047721 170.1859 312.2978  1.00262657  4813
SES-17                  
1 49332U 21095A   26113.41473696 -.00000285  00000+0  00000+0 0  9995
2 49332   0.0257  60.9943 0000908 318.7033 273.9662  1.00269444 17306
SYRACUSE 4A             
1 49333U 21095B   26112.30739530  .00000126  00000+0  00000+0 0  9998
2 49333   0.0161 275.3599 0001510  92.4909 358.6754  1.00270053 17387
QZS-1R (MICHIBIKI-1R)   
1 49336U 21096A   26112.24444799 -.00000227  00000+0  00000+0 0  9998
2 49336  37.3497  80.4065 0750892 270.7500  82.8525  1.00274033 16451
ZHONGXING-1D            
1 49505U 21114A   26113.59628275 -.00000349  00000+0  00000+0 0  9994
2 49505   0.0511  52.3430 0002130 178.6467 325.4568  1.00274836 16274
STPSAT-6                
1 49817U 21118A   26113.50114238 -.00000057  00000+0  00000+0 0  9990
2 49817   0.1802  84.7324 0002180 246.3863 308.9792  1.00271912 16023
LDPE-1                  
1 49818U 21118B   26113.27733441 -.00000236  00000+0  00000+0 0  9997
2 49818   5.5519  63.5436 0001028 274.5256 292.3006  0.98984309 16094
EXPRESS AMU-7           
1 50001U 21123A   26113.59939106 -.00000255  00000+0  00000+0 0  9991
2 50001   0.0165 252.6778 0000632  37.9126 281.8338  1.00272356 15999
EXPRESS AMU-3           
1 50002U 21123B   26113.12723823 -.00000333  00000+0  00000+0 0  9995
2 50002   0.0246 263.3277 0000437  14.0792  82.5820  1.00273932  6488
TIANLIAN 2-02           
1 50005U 21124A   26113.60450442 -.00000027  00000+0  00000+0 0  9996
2 50005   0.6605  86.8682 0003149 219.9573 293.3917  1.00271382 16072
TURKSAT 5B              
1 50212U 21126A   26113.50768553  .00000133  00000+0  00000+0 0  9999
2 50212   0.0738 338.5421 0004693   5.5020  92.2684  1.00271538 15756
INMARSAT 6-F1           
1 50319U 21128A   26113.51591890 -.00000184  00000+0  00000+0 0  9995
2 50319   0.0178 242.3690 0000130  21.5593 217.1102  1.00269864 15715
SHIYAN-12 01 (SY-12 01) 
1 50321U 21129A   26112.75327228 -.00000311  00000+0  00000+0 0  9998
2 50321   3.5329  80.6315 0003233 269.2361 237.1449  1.00064801 15947
SHIYAN-12 02 (SY-12 02) 
1 50322U 21129B   26112.76016676  .00000100  00000+0  00000+0 0  9997
2 50322   3.5330  80.6445 0000617  39.6906  50.4638  1.00470540 15948
TJS-9                   
1 50574U 21135A   26113.59783106 -.00000312  00000+0  00000+0 0  9990
2 50574   0.0229 299.8447 0003772 132.3903 131.8564  1.00272094 15884
GOES 18                 
1 51850U 22021A   26113.54145336  .00000084  00000+0  00000+0 0  9990
2 51850   0.0421  65.5836 0000264  16.8346 187.0822  1.00271310  6044
ZHONGXING-6D            
1 52255U 22038A   26113.06610632 -.00000365  00000+0  00000+0 0  9994
2 52255   0.0249 247.4874 0001655  93.5516  18.9489  1.00272229 14872
NILESAT 301             
1 52817U 22061A   26113.35533471 -.00000070  00000+0  00000+0 0  9994
2 52817   0.0576  33.2180 0005870 344.0493 315.0630  1.00272199 14180
